{"type": "FeatureCollection", "features": [ {"type": "Feature", "properties": {"norad_id": 66603, "name": "STARLINK-36048", "group": "last-30-days", "lat": -4.65665285190757, "lon": 45.88075933880551, "alt_km": 379.9385315749678, "timestamp": "2025-12-07T22:37:41.857898+00:00", "meta": {"OBJECT_NAME": "STARLINK-36048", "OBJECT_ID": "2025-270R", "EPOCH": "2025-12-07T06:00:04.999968", "MEAN_MOTION": 15.65719317, "ECCENTRICITY": 0.00015811, "INCLINATION": 42.999, "RA_OF_ASC_NODE": 225.0025, "ARG_OF_PERICENTER": 263.5526, "MEAN_ANOMALY": 337.2935, "EPHEMERIS_TYPE": 0, "CLASSIFICATION_TYPE": "U", "NORAD_CAT_ID": 66603, "ELEMENT_SET_NO": 999, "REV_AT_EPOCH": 341, "BSTAR": -0.021793682, "MEAN_MOTION_DOT": -0.01994659, "MEAN_MOTION_DDOT": 0}, "tle": {"line1": "1 66603U 25270R   25341.25005787 -.01994659  00000+0 -21794-1 0  9994", "line2": "2 66603  42.9990 225.0025 0001581 263.5526 337.2935 15.65719317  3411"}}, "geometry": {"type": "Point", "coordinates": [45.88075933880551, -4.65665285190757]}}, {"type": "Feature", "properties": {"norad_id": 66604, "name": "STARLINK-35977", "group": "last-30-days", "lat": -5.9567308313405345, "lon": 47.28976329894417, "alt_km": 379.93711727901064, "timestamp": "2025-12-07T22:37:41.857911+00:00", "meta": {"OBJECT_NAME": "STARLINK-35977", "OBJECT_ID": "2025-270S", "EPOCH": "2025-12-07T06:00:04.999968", "MEAN_MOTION": 15.65721487, "ECCENTRICITY": 0.00015624, "INCLINATION": 42.999, "RA_OF_ASC_NODE": 224.9971, "ARG_OF_PERICENTER": 259.9029, "MEAN_ANOMALY": 342.8591, "EPHEMERIS_TYPE": 0, "CLASSIFICATION_TYPE": "U", "NORAD_CAT_ID": 66604, "ELEMENT_SET_NO": 999, "REV_AT_EPOCH": 351, "BSTAR": -0.021823746, "MEAN_MOTION_DOT": -0.01997216, "MEAN_MOTION_DDOT": 0}, "tle": {"line1": "1 66604U 25270S   25341.25005787 -.01997216  00000+0 -21824-1 0  9991", "line2": "2 66604  42.9990 224.9971 0001562 259.9029 342.8591 15.65721487  3518"}}, "geometry": {"type": "Point", "coordinates": [47.28976329894417, -5.9567308313405345]}}, {"type": "Feature", "properties": {"norad_id": 66605, "name": "STARLINK-36052", "group": "last-30-days", "lat": -7.256141768669176, "lon": 48.70949776673664, "alt_km": 380.01486133527123, "timestamp": "2025-12-07T22:37:41.857923+00:00", "meta": {"OBJECT_NAME": "STARLINK-36052", "OBJECT_ID": "2025-270T", "EPOCH": "2025-12-07T06:00:04.999968", "MEAN_MOTION": 15.65717395, "ECCENTRICITY": 0.00015318, "INCLINATION": 42.9991, "RA_OF_ASC_NODE": 224.9925, "ARG_OF_PERICENTER": 259.2516, "MEAN_ANOMALY": 345.4303, "EPHEMERIS_TYPE": 0, "CLASSIFICATION_TYPE": "U", "NORAD_CAT_ID": 66605, "ELEMENT_SET_NO": 999, "REV_AT_EPOCH": 351, "BSTAR": -0.021762492, "MEAN_MOTION_DOT": -0.01991975, "MEAN_MOTION_DDOT": 0}, "tle": {"line1": "1 66605U 25270T   25341.25005787 -.01991975  00000+0 -21762-1 0  9999", "line2": "2 66605  42.9991 224.9925 0001531 259.2516 345.4303 15.65717395  3512"}}, "geometry": {"type": "Point", "coordinates": [48.70949776673664, -7.256141768669176]}}, {"type": "Feature", "properties": {"norad_id": 66606, "name": "STARLINK-36063", "group": "last-30-days", "lat": -9.830492757889113, "lon": 51.56322303081387, "alt_km": 380.2620493709546, "timestamp": "2025-12-07T22:37:41.857935+00:00", "meta": {"OBJECT_NAME": "STARLINK-36063", "OBJECT_ID": "2025-270U", "EPOCH": "2025-12-07T06:00:04.999968", "MEAN_MOTION": 15.65722112, "ECCENTRICITY": 0.00015446, "INCLINATION": 42.9991, "RA_OF_ASC_NODE": 224.9828, "ARG_OF_PERICENTER": 260.1251, "MEAN_ANOMALY": 348.3907, "EPHEMERIS_TYPE": 0, "CLASSIFICATION_TYPE": "U", "NORAD_CAT_ID": 66606, "ELEMENT_SET_NO": 999, "REV_AT_EPOCH": 351, "BSTAR": -0.02186808, "MEAN_MOTION_DOT": -0.0200081, "MEAN_MOTION_DDOT": 0}, "tle": {"line1": "1 66606U 25270U   25341.25005787 -.02000810  00000+0 -21868-1 0  9997", "line2": "2 66606  42.9991 224.9828 0001544 260.1251 348.3907 15.65722112  3511"}}, "geometry": {"type": "Point", "coordinates": [51.56322303081387, -9.830492757889113]}}, {"type": "Feature", "properties": {"norad_id": 66607, "name": "STARLINK-35993", "group": "last-30-days", "lat": -8.549871251917532, "lon": 50.13632190694275, "alt_km": 380.058880042473, "timestamp": "2025-12-07T22:37:41.857945+00:00", "meta": {"OBJECT_NAME": "STARLINK-35993", "OBJECT_ID": "2025-270V", "EPOCH": "2025-12-07T06:00:04.999968", "MEAN_MOTION": 15.65716295, "ECCENTRICITY": 0.00015501, "INCLINATION": 42.9991, "RA_OF_ASC_NODE": 224.9881, "ARG_OF_PERICENTER": 257.8668, "MEAN_ANOMALY": 348.7308, "EPHEMERIS_TYPE": 0, "CLASSIFICATION_TYPE": "U", "NORAD_CAT_ID": 66607, "ELEMENT_SET_NO": 999, "REV_AT_EPOCH": 341, "BSTAR": -0.021724953, "MEAN_MOTION_DOT": -0.0198889, "MEAN_MOTION_DDOT": 0}, "tle": {"line1": "1 66607U 25270V   25341.25005787 -.01988890  00000+0 -21725-1 0  9992", "line2": "2 66607  42.9991 224.9881 0001550 257.8668 348.7308 15.65716295  3416"}}, "geometry": {"type": "Point", "coordinates": [50.13632190694275, -8.549871251917532]}}, {"type": "Feature", "properties": {"norad_id": 66608, "name": "STARLINK-36036", "group": "last-30-days", "lat": -11.113031951393058, "lon": 53.010965625427275, "alt_km": 380.2862113669735, "timestamp": "2025-12-07T22:37:41.857956+00:00", "meta": {"OBJECT_NAME": "STARLINK-36036", "OBJECT_ID": "2025-270W", "EPOCH": "2025-12-07T06:00:04.999968", "MEAN_MOTION": 15.65718611, "ECCENTRICITY": 0.00015952, "INCLINATION": 42.9992, "RA_OF_ASC_NODE": 224.9782, "ARG_OF_PERICENTER": 258.7892, "MEAN_ANOMALY": 351.6441, "EPHEMERIS_TYPE": 0, "CLASSIFICATION_TYPE": "U", "NORAD_CAT_ID": 66608, "ELEMENT_SET_NO": 999, "REV_AT_EPOCH": 335, "BSTAR": -0.021802697, "MEAN_MOTION_DOT": -0.01995345, "MEAN_MOTION_DDOT": 0}, "tle": {"line1": "1 66608U 25270W   25341.25005787 -.01995345  00000+0 -21803-1 0  9993", "line2": "2 66608  42.9992 224.9782 0001595 258.7892 351.6441 15.65718611  3354"}}, "geometry": {"type": "Point", "coordinates": [53.010965625427275, -11.113031951393058]}}, {"type": "Feature", "properties": {"norad_id": 66609, "name": "STARLINK-36034", "group": "last-30-days", "lat": -12.392464157878718, "lon": 54.47595391411807, "alt_km": 380.3607741318947, "timestamp": "2025-12-07T22:37:41.857966+00:00", "meta": {"OBJECT_NAME": "STARLINK-36034", "OBJECT_ID": "2025-270X", "EPOCH": "2025-12-07T06:00:04.999968", "MEAN_MOTION": 15.65714895, "ECCENTRICITY": 0.00015154, "INCLINATION": 42.9992, "RA_OF_ASC_NODE": 224.9735, "ARG_OF_PERICENTER": 258.3843, "MEAN_ANOMALY": 353.966, "EPHEMERIS_TYPE": 0, "CLASSIFICATION_TYPE": "U", "NORAD_CAT_ID": 66609, "ELEMENT_SET_NO": 999, "REV_AT_EPOCH": 335, "BSTAR": -0.021704471, "MEAN_MOTION_DOT": -0.01987115, "MEAN_MOTION_DDOT": 0}, "tle": {"line1": "1 66609U 25270X   25341.25005787 -.01987115  00000+0 -21704-1 0  9990", "line2": "2 66609  42.9992 224.9735 0001515 258.3843 353.9660 15.65714895  3355"}}, "geometry": {"type": "Point", "coordinates": [54.47595391411807, -12.392464157878718]}}, {"type": "Feature", "properties": {"norad_id": 66610, "name": "STARLINK-35680", "group": "last-30-days", "lat": -13.656775970712848, "lon": 55.946512219256704, "alt_km": 380.43086512037917, "timestamp": "2025-12-07T22:37:41.857978+00:00", "meta": {"OBJECT_NAME": "STARLINK-35680", "OBJECT_ID": "2025-270Y", "EPOCH": "2025-12-07T06:00:04.999968", "MEAN_MOTION": 15.6571592, "ECCENTRICITY": 0.00015525, "INCLINATION": 42.9992, "RA_OF_ASC_NODE": 224.9683, "ARG_OF_PERICENTER": 257.9927, "MEAN_ANOMALY": 356.2748, "EPHEMERIS_TYPE": 0, "CLASSIFICATION_TYPE": "U", "NORAD_CAT_ID": 66610, "ELEMENT_SET_NO": 999, "REV_AT_EPOCH": 362, "BSTAR": -0.021730442, "MEAN_MOTION_DOT": -0.01989307, "MEAN_MOTION_DDOT": 0}, "tle": {"line1": "1 66610U 25270Y   25341.25005787 -.01989307  00000+0 -21730-1 0  9996", "line2": "2 66610  42.9992 224.9683 0001552 257.9927 356.2748 15.65715920  3621"}}, "geometry": {"type": "Point", "coordinates": [55.946512219256704, -13.656775970712848]}}, {"type": "Feature", "properties": {"norad_id": 66611, "name": "STARLINK-35583", "group": "last-30-days", "lat": -14.912131848466403, "lon": 57.4333079302321, "alt_km": 380.56078838048234, "timestamp": "2025-12-07T22:37:41.857988+00:00", "meta": {"OBJECT_NAME": "STARLINK-35583", "OBJECT_ID": "2025-270Z", "EPOCH": "2025-12-07T06:00:04.999968", "MEAN_MOTION": 15.65716958, "ECCENTRICITY": 0.00015628, "INCLINATION": 42.9991, "RA_OF_ASC_NODE": 224.9636, "ARG_OF_PERICENTER": 259.5955, "MEAN_ANOMALY": 356.5891, "EPHEMERIS_TYPE": 0, "CLASSIFICATION_TYPE": "U", "NORAD_CAT_ID": 66611, "ELEMENT_SET_NO": 999, "REV_AT_EPOCH": 362, "BSTAR": -0.021754947, "MEAN_MOTION_DOT": -0.01991361, "MEAN_MOTION_DDOT": 0}, "tle": {"line1": "1 66611U 25270Z   25341.25005787 -.01991361  00000+0 -21755-1 0  9997", "line2": "2 66611  42.9991 224.9636 0001562 259.5955 356.5891 15.65716958  3623"}}, "geometry": {"type": "Point", "coordinates": [57.4333079302321, -14.912131848466403]}}, {"type": "Feature", "properties": {"norad_id": 66612, "name": "STARLINK-36039", "group": "last-30-days", "lat": -16.160277760949356, "lon": 58.94017382177613, "alt_km": 380.57989807804097, "timestamp": "2025-12-07T22:37:41.858002+00:00", "meta": {"OBJECT_NAME": "STARLINK-36039", "OBJECT_ID": "2025-270AA", "EPOCH": "2025-12-07T06:00:04.999968", "MEAN_MOTION": 15.6571557, "ECCENTRICITY": 0.0001565, "INCLINATION": 42.999, "RA_OF_ASC_NODE": 224.9584, "ARG_OF_PERICENTER": 257.7546, "MEAN_ANOMALY": 0.347, "EPHEMERIS_TYPE": 0, "CLASSIFICATION_TYPE": "U", "NORAD_CAT_ID": 66612, "ELEMENT_SET_NO": 999, "REV_AT_EPOCH": 351, "BSTAR": -0.021726973, "MEAN_MOTION_DOT": -0.01989013, "MEAN_MOTION_DDOT": 0}, "tle": {"line1": "1 66612U 25270AA  25341.25005787 -.01989013  00000+0 -21727-1 0  9998", "line2": "2 66612  42.9990 224.9584 0001565 257.7546   0.3470 15.65715570  3518"}}, "geometry": {"type": "Point", "coordinates": [58.94017382177613, -16.160277760949356]}}]}